{
"type": "FeatureCollection",
"name": "bhimavaram_mandal",
"crs": { "type": "name", "properties": { "name": "urn:ogc:def:crs:OGC:1.3:CRS84" } },
"features": [
{ "type": "Feature", "properties": { "district_lgd": 523, "district_name": "West Godavari", "mandal_lgd": 4984, "mandal_name": "Bhimavaram", "objectid": 299, "revenue_division": "Bhimavaram", "objectid1": 145, "SHAPE__Length": 0.82274988033994556, "SHAPE__Area": 0.018128963731089066 }, "geometry": { "type": "MultiPolygon", "coordinates": [ [ [ [ 81.51134297100009, 16.582976338000151 ], [ 81.512006507000137, 16.582491809000089 ], [ 81.512158546000194, 16.582008939000104 ], [ 81.513089834000141, 16.581934949000015 ], [ 81.513310879000016, 16.581673541999976 ], [ 81.513761053000167, 16.581486693000045 ], [ 81.514692240000045, 16.58133825800013 ], [ 81.515096660000097, 16.58118956300018 ], [ 81.515730060000067, 16.58100471299997 ], [ 81.516546934000189, 16.581005114000106 ], [ 81.517257025000049, 16.581079908000049 ], [ 81.51811246900013, 16.581378112000039 ], [ 81.519196292000174, 16.581191573000183 ], [ 81.519829642, 16.580968547 ], [ 81.520272033000083, 16.580670978000171 ], [ 81.520531400000152, 16.580522214000098 ], [ 81.520383003000063, 16.578027242000076 ], [ 81.52038100600015, 16.576538319000065 ], [ 81.520448968000096, 16.575980960999971 ], [ 81.520860423000101, 16.575385593000078 ], [ 81.521752341000195, 16.574418232000085 ], [ 81.52230849700004, 16.57356142000009 ], [ 81.52264365700006, 16.573002283000108 ], [ 81.523390076000055, 16.571700797000062 ], [ 81.524052413000106, 16.570322915000077 ], [ 81.524280245000114, 16.569429673000059 ], [ 81.525578680000137, 16.569876986000054 ], [ 81.526510416000178, 16.570137051000131 ], [ 81.527297002000068, 16.570324506000134 ], [ 81.528228539000111, 16.570435678000081 ], [ 81.528663672000164, 16.570418712000105 ], [ 81.529121706000012, 16.570399848000136 ], [ 81.529861685000071, 16.569989802000123 ], [ 81.53034190000011, 16.569432647000156 ], [ 81.530791826000041, 16.569060637000064 ], [ 81.531272437999974, 16.568799357000159 ], [ 81.531722615000035, 16.568614417000106 ], [ 81.532394085000135, 16.568353230000071 ], [ 81.532355166000059, 16.567795820000129 ], [ 81.532132772000125, 16.567051250000191 ], [ 81.531833633000133, 16.566006948000108 ], [ 81.531756890000111, 16.565709127000048 ], [ 81.531268094000154, 16.565559994000068 ], [ 81.530710588000034, 16.565410829000086 ], [ 81.530191454000089, 16.565410574000168 ], [ 81.529558005000183, 16.565559156000177 ], [ 81.529520683000101, 16.566192884000031 ], [ 81.528329929000165, 16.566341192000039 ], [ 81.527994017000083, 16.566341027000135 ], [ 81.527924810000115, 16.565968762000125 ], [ 81.527625474000047, 16.564777478000167 ], [ 81.527472038000155, 16.564218102999973 ], [ 81.527547681999977, 16.563697017000038 ], [ 81.527952002000063, 16.563473877000035 ], [ 81.528699716000119, 16.563138280999965 ], [ 81.529142107000041, 16.56284071500005 ], [ 81.528956787000141, 16.561277255 ], [ 81.529475622000177, 16.561054172000127 ], [ 81.529926298000191, 16.561241462000169 ], [ 81.530224036000106, 16.561241609000092 ], [ 81.530483553000181, 16.561203558000045 ], [ 81.530894907000118, 16.560533745000157 ], [ 81.530665430000056, 16.56019958000013 ], [ 81.530741074000105, 16.559678493999968 ], [ 81.531153125000174, 16.559527895000031 ], [ 81.531634188000055, 16.559602577000192 ], [ 81.532191493000084, 16.559602850000147 ], [ 81.532565576000025, 16.559603034000133 ], [ 81.532977131000109, 16.559082113000102 ], [ 81.533496165000031, 16.559007922000092 ], [ 81.534053171000096, 16.558784857000035 ], [ 81.534503297000072, 16.558561739000027 ], [ 81.534608281000033, 16.55714731400019 ], [ 81.534608099000195, 16.557012095000061 ], [ 81.534614994000151, 16.557020513000055 ], [ 81.540270138000153, 16.553913852000164 ], [ 81.543637838000109, 16.550783976000162 ], [ 81.545443082000077, 16.549941757000056 ], [ 81.547009575000118, 16.55066518700005 ], [ 81.549659893000182, 16.551389146000133 ], [ 81.551101279000079, 16.548619655000039 ], [ 81.550372593000191, 16.544042449000074 ], [ 81.548803516000135, 16.541391923000162 ], [ 81.549881690000177, 16.537176932000023 ], [ 81.55252877800018, 16.535492023000131 ], [ 81.554330632000188, 16.532120492000161 ], [ 81.556132969000032, 16.529110291000052 ], [ 81.558083429000135, 16.526236820000065 ], [ 81.55798068200005, 16.525773074000028 ], [ 81.558247781000034, 16.525696850000145 ], [ 81.558545072000015, 16.525362943000118 ], [ 81.558574560000181, 16.524580319000052 ], [ 81.558505453000066, 16.524282501000073 ], [ 81.55850465300017, 16.523686932000089 ], [ 81.558351320000156, 16.523203912000099 ], [ 81.559061160999988, 16.523091636000061 ], [ 81.55983986300015, 16.52309201900016 ], [ 81.560549755000068, 16.523017921000076 ], [ 81.561068338999974, 16.522607767000068 ], [ 81.561556489000054, 16.52227395400007 ], [ 81.562220675000106, 16.52227428000009 ], [ 81.563151963999985, 16.522200292000036 ], [ 81.564235188999987, 16.5215670770001 ], [ 81.564791946000184, 16.521158851000109 ], [ 81.56553167800007, 16.520563646000141 ], [ 81.565866990000131, 16.520117133000042 ], [ 81.565720338000062, 16.518924016000028 ], [ 81.56548981200018, 16.517807211000047 ], [ 81.565825123000138, 16.517360699000051 ], [ 81.56649649700006, 16.517026976000068 ], [ 81.567808884000044, 16.516493136000122 ], [ 81.568877109000198, 16.516060346000017 ], [ 81.57006741400005, 16.515576076000116 ], [ 81.571517688000142, 16.51539162600011 ], [ 81.572082279000199, 16.515130387999989 ], [ 81.572410155000171, 16.514832764000062 ], [ 81.572447777000093, 16.514422375000152 ], [ 81.572148841, 16.51352887600018 ], [ 81.570733497000163, 16.511294798000051 ], [ 81.569838134000065, 16.509692814000061 ], [ 81.569684649000067, 16.509097170000132 ], [ 81.569837137000093, 16.508948352000061 ], [ 81.570172997000157, 16.508912249000048 ], [ 81.570768276000081, 16.508763649000173 ], [ 81.572180128000014, 16.508392112000081 ], [ 81.57266902300006, 16.508615690000113 ], [ 81.57314993500006, 16.50857774900004 ], [ 81.573669368000139, 16.508801342000027 ], [ 81.573967506000145, 16.509099273000061 ], [ 81.574822751000113, 16.509248585000137 ], [ 81.575571014000104, 16.509323398000049 ], [ 81.577579792000051, 16.510032577000175 ], [ 81.578175119000036, 16.509920245000103 ], [ 81.578663415999983, 16.509697146000065 ], [ 81.579105908000031, 16.509474025000145 ], [ 81.579556433000107, 16.50954869200001 ], [ 81.57955483700016, 16.508357555000146 ], [ 81.578726937, 16.505825982000033 ], [ 81.578059654000128, 16.503515917000129 ], [ 81.577827982000144, 16.501543937 ], [ 81.57764390900013, 16.500910100000056 ], [ 81.577489925000179, 16.499942226000087 ], [ 81.577489275000119, 16.499457372000109 ], [ 81.577007366000146, 16.498750852000114 ], [ 81.576034312000104, 16.496142854000141 ], [ 81.575734929000077, 16.4949153 ], [ 81.577039899000056, 16.494543711000063 ], [ 81.579535675000159, 16.494060082000146 ], [ 81.582062039000107, 16.493614646000026 ], [ 81.583061844000156, 16.493397526000024 ], [ 81.583161472000199, 16.493681996000134 ], [ 81.583421837000174, 16.494277692000026 ], [ 81.584669169000165, 16.496469693000108 ], [ 81.585075638000149, 16.497850008000171 ], [ 81.585267742000042, 16.498779723000098 ], [ 81.585574106000195, 16.499518607000141 ], [ 81.586329369000055, 16.499120024000092 ], [ 81.5870308800001, 16.498488531000191 ], [ 81.587457827000151, 16.498059244000103 ], [ 81.588319644000137, 16.497416377000093 ], [ 81.588700946000074, 16.497107326 ], [ 81.589318785000103, 16.49670294800012 ], [ 81.590195999000059, 16.496155533000035 ], [ 81.590386984000133, 16.496251070000028 ], [ 81.59105101199998, 16.496133046000068 ], [ 81.591699738000045, 16.495990199000062 ], [ 81.593554273000109, 16.49553870699998 ], [ 81.59429489900009, 16.49560969900017 ], [ 81.595172655000056, 16.495466965000105 ], [ 81.59588996400015, 16.495230615000082 ], [ 81.596721817000173, 16.495015321000039 ], [ 81.597744499000044, 16.494779124000104 ], [ 81.598317011000177, 16.494731683 ], [ 81.598958453000137, 16.494850349000046 ], [ 81.599790019000181, 16.494421259000092 ], [ 81.600362115000109, 16.494064581000032 ], [ 81.599931403000141, 16.491684003999978 ], [ 81.599808263000114, 16.490945211000053 ], [ 81.599569460000168, 16.489349276000098 ], [ 81.599499953000191, 16.488753673000076 ], [ 81.599376528000164, 16.487801085000171 ], [ 81.599184840000134, 16.487182515000143 ], [ 81.598350115000073, 16.485254142000031 ], [ 81.597607157000027, 16.483442257000092 ], [ 81.597415470000101, 16.482823688000167 ], [ 81.596679448000145, 16.480488774999969 ], [ 81.596465113000079, 16.48006108200002 ], [ 81.596296167000105, 16.479322265000121 ], [ 81.596387143000186, 16.47884700100002 ], [ 81.596508589000109, 16.47832212000003 ], [ 81.596362899000155, 16.477846739000029 ], [ 81.596217558000092, 16.477630965000117 ], [ 81.596270520000019, 16.477274032000025 ], [ 81.596598287000063, 16.476894326000036 ], [ 81.596597681, 16.476441923000152 ], [ 81.596597042000042, 16.475964704000035 ], [ 81.596596564000038, 16.475607745000048 ], [ 81.596809398000062, 16.47491683700008 ], [ 81.596594523000135, 16.474084463000167 ], [ 81.596593946000155, 16.473654966000026 ], [ 81.596715648000099, 16.473320973000057 ], [ 81.596860159000073, 16.472916362000035 ], [ 81.597042585000054, 16.472320884000169 ], [ 81.596804643999974, 16.47136824 ], [ 81.596903317000056, 16.470940700000028 ], [ 81.597139469000069, 16.470559042000048 ], [ 81.59756523700014, 16.469249764000097 ], [ 81.597968743000138, 16.468417694000152 ], [ 81.597494932000075, 16.468058593000023 ], [ 81.597661547000087, 16.467058424000129 ], [ 81.597630310000113, 16.466535378 ], [ 81.597629384000186, 16.465844365000123 ], [ 81.597795648000101, 16.464582682000071 ], [ 81.597794884000052, 16.464011928000104 ], [ 81.597793989000081, 16.46334382200007 ], [ 81.59784471800009, 16.461320441000112 ], [ 81.597867110000152, 16.460938678000048 ], [ 81.597910939000144, 16.459463139999968 ], [ 81.598100999000053, 16.458867665000184 ], [ 81.598145497000189, 16.457890343000145 ], [ 81.597954543000185, 16.457819622000045 ], [ 81.597191238, 16.457914690000109 ], [ 81.596405253000057, 16.458175819000132 ], [ 81.5958635020001, 16.458389347000036 ], [ 81.595000983000091, 16.458509183 ], [ 81.594527784000093, 16.458604393000087 ], [ 81.594000789000063, 16.458436154000083 ], [ 81.59333666800012, 16.45848354900005 ], [ 81.592886339000074, 16.458555865000164 ], [ 81.592436105000104, 16.458698810000158 ], [ 81.591809737000176, 16.458435078000036 ], [ 81.591695383000115, 16.458555279999985 ], [ 81.59064868300004, 16.45795919700015 ], [ 81.589502641000081, 16.457292438000138 ], [ 81.588501939000196, 16.456839543000058 ], [ 81.588310600000113, 16.456480580000118 ], [ 81.587691902000074, 16.456243576000077 ], [ 81.586996922000139, 16.456052347000139 ], [ 81.58659223900014, 16.456004427000096 ], [ 81.584499637000192, 16.455407831000116 ], [ 81.582834460000129, 16.45474081500015 ], [ 81.582284342000094, 16.454406492000089 ], [ 81.58207003900003, 16.45400170500011 ], [ 81.581518643000095, 16.452714854000135 ], [ 81.58123627000009, 16.452787252000064 ], [ 81.581297033000055, 16.452554399000064 ], [ 81.581350210000096, 16.452357811000127 ], [ 81.582159129000161, 16.45211960000006 ], [ 81.581967761000101, 16.451739640000085 ], [ 81.581776361000095, 16.451334865000092 ], [ 81.581875130000185, 16.450977954000109 ], [ 81.581966039000179, 16.450453058000051 ], [ 81.58196568700015, 16.45019154300013 ], [ 81.582301470000118, 16.450096263999967 ], [ 81.582774832000041, 16.450121312000135 ], [ 81.583347437000043, 16.450144500000079 ], [ 81.58434740600012, 16.450049547000106 ], [ 81.584660350000036, 16.450001979000092 ], [ 81.585110616000179, 16.44988385 ], [ 81.585324216000117, 16.449763697000094 ], [ 81.585514597000156, 16.449406830000157 ], [ 81.585727721000183, 16.448931625000171 ], [ 81.58551367400014, 16.448717727000087 ], [ 81.585558871000046, 16.448263437000151 ], [ 81.585558329000037, 16.44785875600013 ], [ 81.585465952000106, 16.447287957000071 ], [ 81.585320166000145, 16.446740039000019 ], [ 81.585060026000065, 16.446312324000075 ], [ 81.58470054300011, 16.445812022000098 ], [ 81.584338569000181, 16.443452476000061 ], [ 81.584052146000033, 16.440501216000143 ], [ 81.583713685000134, 16.438595995000128 ], [ 81.583666826000126, 16.437809515000083 ], [ 81.58247449800001, 16.436783865000109 ], [ 81.581564898000067, 16.435951149000175 ], [ 81.580639549000182, 16.434759556000074 ], [ 81.580280225000138, 16.434377605000179 ], [ 81.579660696000076, 16.43352021700008 ], [ 81.579614190000143, 16.432997162000049 ], [ 81.579656998000132, 16.430758074999972 ], [ 81.579655913000124, 16.429948711000179 ], [ 81.579654829000049, 16.429139348000092 ], [ 81.579799595000111, 16.428925625999966 ], [ 81.578776468000115, 16.42882967900016 ], [ 81.578272155000036, 16.428495378000093 ], [ 81.577561651000053, 16.428113254000095 ], [ 81.577202616000136, 16.427947006000011 ], [ 81.575750882000079, 16.427041486000064 ], [ 81.575223730000175, 16.426754895000045 ], [ 81.573344445000032, 16.425826259000132 ], [ 81.571243823000088, 16.424943327000108 ], [ 81.569028722000041, 16.424085153000135 ], [ 81.567119185000081, 16.423370295000154 ], [ 81.565285958000175, 16.422630660000152 ], [ 81.563193292000051, 16.421986341000036 ], [ 81.561283883000044, 16.421366927000122 ], [ 81.559092098000178, 16.42081800200009 ], [ 81.556740185000194, 16.420412165000187 ], [ 81.555235936000145, 16.420197630000075 ], [ 81.558905160000165, 16.418044315000031 ], [ 81.563069207000183, 16.414839456000152 ], [ 81.564251193000075, 16.413843603999965 ], [ 81.564560150000148, 16.410818191000033 ], [ 81.563674217000141, 16.410556239000016 ], [ 81.560031306000099, 16.409554198000023 ], [ 81.559343134000187, 16.408744497000043 ], [ 81.558906142000069, 16.407373711000162 ], [ 81.558729152000183, 16.406327561000126 ], [ 81.558148711000172, 16.406153567999979 ], [ 81.557452822000073, 16.405282779000174 ], [ 81.557526403000054, 16.403219322000041 ], [ 81.555167397000048, 16.403218162000144 ], [ 81.552396799000178, 16.403711197000177 ], [ 81.550062177000086, 16.404815287000019 ], [ 81.548391032000097, 16.405390945000079 ], [ 81.546810684000093, 16.405357717000129 ], [ 81.54456597300009, 16.405192450000072 ], [ 81.54164788200012, 16.403860529000099 ], [ 81.541701766000131, 16.404192700000124 ], [ 81.541803977000143, 16.406407044 ], [ 81.542326788000139, 16.414855978999981 ], [ 81.543039298000167, 16.422438378000038 ], [ 81.541904290000048, 16.424310425000158 ], [ 81.540551753000102, 16.429068584000106 ], [ 81.539161733000014, 16.434340211000062 ], [ 81.537694999000166, 16.439335014999983 ], [ 81.536936477000097, 16.443001589000175 ], [ 81.536346550000076, 16.447145465000176 ], [ 81.535883508000154, 16.449124741000162 ], [ 81.535195751000174, 16.448626186000013 ], [ 81.532697288000122, 16.447101677000092 ], [ 81.529908401, 16.445338414000162 ], [ 81.528999295000119, 16.444874111 ], [ 81.527998511000078, 16.444360132000043 ], [ 81.527509715000122, 16.444210999 ], [ 81.526828328000192, 16.44276755500016 ], [ 81.526216166000154, 16.4417097380001 ], [ 81.525022183000033, 16.439447135000023 ], [ 81.524264376000133, 16.437946386000135 ], [ 81.52280274400016, 16.435349598000016 ], [ 81.522136901000067, 16.434112320000168 ], [ 81.52141784000014, 16.433039179000104 ], [ 81.520339751000051, 16.431807426000034 ], [ 81.518184534000113, 16.430059745000108 ], [ 81.516594341000086, 16.428375336000101 ], [ 81.515753628000084, 16.427674365000087 ], [ 81.515218372000049, 16.427036537999982 ], [ 81.514843804000122, 16.426673667000102 ], [ 81.514415741000164, 16.426268775000153 ], [ 81.514162962000114, 16.425636814000029 ], [ 81.513451726000028, 16.424706842000148 ], [ 81.512564553000118, 16.423517177000065 ], [ 81.511754263, 16.422730321000131 ], [ 81.511158274000195, 16.422348253000166 ], [ 81.509752284, 16.421395033000124 ], [ 81.509232736, 16.421085540000036 ], [ 81.508675431000199, 16.421085265999977 ], [ 81.507324156000038, 16.421084601000018 ], [ 81.506110555000078, 16.421274892000042 ], [ 81.505583979, 16.421417799000096 ], [ 81.50528594400015, 16.421196222000106 ], [ 81.503895166000177, 16.420201014000043 ], [ 81.502826057999982, 16.419344079000098 ], [ 81.502827124000078, 16.419343405 ], [ 81.502551863000122, 16.419026395000117 ], [ 81.50188662000005, 16.418235794000111 ], [ 81.500275617000113, 16.416688277000105 ], [ 81.500210641000024, 16.416625788000147 ], [ 81.498286130000054, 16.414858786000138 ], [ 81.497375825000177, 16.413343038000164 ], [ 81.496960827000123, 16.411292702000139 ], [ 81.49652401600008, 16.410055536000073 ], [ 81.49652281900012, 16.410055655000178 ], [ 81.496522104000121, 16.410053626000092 ], [ 81.496574397000074, 16.409196567000151 ], [ 81.496733984000059, 16.408648798000058 ], [ 81.497099721000041, 16.408118311000123 ], [ 81.497259541000119, 16.407744250000178 ], [ 81.49787797100015, 16.407782732000157 ], [ 81.498236479000127, 16.407553842000027 ], [ 81.498541278000062, 16.407126404000053 ], [ 81.498708500000191, 16.406578640000191 ], [ 81.498944112000174, 16.405792299000041 ], [ 81.499111238000125, 16.40517390600013 ], [ 81.499064316000158, 16.404339705000098 ], [ 81.498803952000117, 16.403744008000103 ], [ 81.498566747000098, 16.403339210000013 ], [ 81.498345321000102, 16.40331619400007 ], [ 81.498040170000138, 16.403482116000134 ], [ 81.4973454470001, 16.403481774000113 ], [ 81.496894895000139, 16.403386108000177 ], [ 81.496207487000106, 16.403147162000096 ], [ 81.495512606000091, 16.403028469000162 ], [ 81.494825420000097, 16.402955594000105 ], [ 81.493848196000044, 16.402932207 ], [ 81.493443131, 16.40259795500009 ], [ 81.492785723000168, 16.401958157000081 ], [ 81.492418794000059, 16.401597199000037 ], [ 81.492296450000083, 16.401452064000011 ], [ 81.491562348000116, 16.400548806000074 ], [ 81.490629622000199, 16.399548096000046 ], [ 81.489964067000074, 16.398524611000028 ], [ 81.489697417000059, 16.39828664700002 ], [ 81.489698455000166, 16.398285871000155 ], [ 81.488581698000189, 16.396681867000154 ], [ 81.487794138000083, 16.395765219000111 ], [ 81.485265068000047, 16.394187243000147 ], [ 81.483874525000033, 16.393365742000128 ], [ 81.482453443000054, 16.392544225999984 ], [ 81.480779585999983, 16.391092657000058 ], [ 81.480778006000037, 16.391092942000171 ], [ 81.480777677000106, 16.391092657000058 ], [ 81.479548849000025, 16.391313482000101 ], [ 81.477374842000188, 16.39263717100016 ], [ 81.474858643000118, 16.394970488000183 ], [ 81.473493541000153, 16.39604642200004 ], [ 81.472982601000126, 16.396464213000058 ], [ 81.472311246000118, 16.396811298999978 ], [ 81.471845862000123, 16.397042043999988 ], [ 81.471658446000106, 16.397104290000186 ], [ 81.471658870000113, 16.397244487000137 ], [ 81.471659585999987, 16.39748163500002 ], [ 81.47166026300016, 16.397705780000024 ], [ 81.471659616000181, 16.397705719000101 ], [ 81.469986003000031, 16.397549371000139 ], [ 81.469500486000072, 16.397630163000088 ], [ 81.468130419000147, 16.397858142000189 ], [ 81.46648559, 16.397750804 ], [ 81.464693327000134, 16.397693611000022 ], [ 81.46375614800013, 16.398039926000138 ], [ 81.462901076000094, 16.398426712000173 ], [ 81.462023265000198, 16.399045900999965 ], [ 81.461450692000142, 16.399507086000028 ], [ 81.460870367000041, 16.400119229000154 ], [ 81.46041276200009, 16.400642843000128 ], [ 81.460244662000036, 16.400835513000061 ], [ 81.460073150000028, 16.401062112000091 ], [ 81.459875969000166, 16.401322700000151 ], [ 81.459688122000159, 16.401571956000168 ], [ 81.459347042, 16.402287453000156 ], [ 81.458633100999975, 16.402876780000156 ], [ 81.45794174200006, 16.403577975000132 ], [ 81.457462894000059, 16.403963518000182 ], [ 81.456921585000146, 16.404399350000176 ], [ 81.455825270000105, 16.404818427000123 ], [ 81.455135012000198, 16.405102408000062 ], [ 81.454275532000167, 16.4052002950001 ], [ 81.453524506000178, 16.405133943000124 ], [ 81.452737165000144, 16.405066555000019 ], [ 81.452531961000034, 16.404978095 ], [ 81.452021743999978, 16.404758146000177 ], [ 81.451233096000124, 16.404241899 ], [ 81.450514533000103, 16.40365705500011 ], [ 81.449834025000087, 16.402865200000065 ], [ 81.448902191000059, 16.402246445000117 ], [ 81.448257133000197, 16.401557376000028 ], [ 81.447110956000131, 16.400938061000033 ], [ 81.445931850000079, 16.400270212000123 ], [ 81.445152679000159, 16.399779355000078 ], [ 81.444283129000155, 16.399221465000096 ], [ 81.443314321000116, 16.398767291000183 ], [ 81.442460369000173, 16.398335416000066 ], [ 81.442351631000065, 16.398311441000146 ], [ 81.441345754000054, 16.398089658000174 ], [ 81.440475878000029, 16.397820629000023 ], [ 81.43925563200014, 16.397908111000163 ], [ 81.438840648000053, 16.398198656000147 ], [ 81.4380541270001, 16.398407085000031 ], [ 81.437161411000147, 16.398754861000043 ], [ 81.436554976000139, 16.399273729000186 ], [ 81.435743796000168, 16.399875109 ], [ 81.435701105000078, 16.400103608 ], [ 81.435307071000182, 16.400762675000067 ], [ 81.434379462000095, 16.401617051000073 ], [ 81.434234002000153, 16.401954927000133 ], [ 81.434080387000108, 16.402308088000154 ], [ 81.433973323000146, 16.402554847000033 ], [ 81.433902532000047, 16.402787942000089 ], [ 81.433647717000042, 16.403391803000034 ], [ 81.433212052000101, 16.404246008000086 ], [ 81.433055492000165, 16.404387183000154 ], [ 81.432710448000194, 16.404979974000071 ], [ 81.432573929000171, 16.405147863000025 ], [ 81.432572707000077, 16.405149365000113 ], [ 81.432491679000123, 16.405458846000101 ], [ 81.432467251000048, 16.405552145000058 ], [ 81.432221896999977, 16.406190463000144 ], [ 81.432136968000179, 16.40639589500006 ], [ 81.431771175, 16.406693645000189 ], [ 81.431489521000174, 16.406922205000114 ], [ 81.431067421000023, 16.40760790700017 ], [ 81.430711907000102, 16.407814047000159 ], [ 81.430316097000059, 16.408269595000036 ], [ 81.430177152, 16.408428812000125 ], [ 81.429461764000166, 16.408958121000126 ], [ 81.429137411000056, 16.409146382000188 ], [ 81.429012689000047, 16.409218773000021 ], [ 81.428568294000115, 16.409477717000129 ], [ 81.427945539, 16.410044088 ], [ 81.427889193000169, 16.410121509000135 ], [ 81.427793843000075, 16.410252519000153 ], [ 81.427624777000119, 16.410532224000121 ], [ 81.427591716000165, 16.410692524000012 ], [ 81.4275750810001, 16.410773177000067 ], [ 81.427329047000171, 16.411176320000095 ], [ 81.427179540000168, 16.411329344000137 ], [ 81.426978720000079, 16.411984499000084 ], [ 81.426889143000039, 16.412205769000082 ], [ 81.426701298000182, 16.413313139000081 ], [ 81.426655110000127, 16.413552387000152 ], [ 81.426523117000102, 16.414525633000039 ], [ 81.426504378000061, 16.414648567000086 ], [ 81.426486306000186, 16.41476711700011 ], [ 81.42640252200016, 16.415386352000098 ], [ 81.426369126000054, 16.415589395000097 ], [ 81.42636335900005, 16.415624451000156 ], [ 81.426209355000083, 16.416267046000144 ], [ 81.426138536000167, 16.41649561600002 ], [ 81.425947373000099, 16.417255893000174 ], [ 81.425875561000169, 16.417484472000126 ], [ 81.425875385000154, 16.417485032 ], [ 81.425821449000125, 16.417887108000059 ], [ 81.425800805000051, 16.41804544900009 ], [ 81.425423516000137, 16.418433102000108 ], [ 81.425229616000081, 16.41863259500019 ], [ 81.424588049000022, 16.41918826400007 ], [ 81.423132415000055, 16.419772607000027 ], [ 81.422187917000031, 16.420078618000048 ], [ 81.42117192000012, 16.419946693000043 ], [ 81.420188543000165, 16.419749103000015 ], [ 81.419400972000119, 16.419614886000033 ], [ 81.418326997000179, 16.419271104000188 ], [ 81.416789148000191, 16.418930198000055 ], [ 81.415603339000029, 16.418811118000121 ], [ 81.414680952000197, 16.418637089000015 ], [ 81.414064456000176, 16.418817227000034 ], [ 81.413806594000164, 16.418892572000118 ], [ 81.412965860000043, 16.419450973000039 ], [ 81.412096846999987, 16.419950648999986 ], [ 81.411409581000157, 16.420516006000128 ], [ 81.410628561000181, 16.42106972400012 ], [ 81.409966097999984, 16.421713024999974 ], [ 81.409337328000049, 16.422255048000181 ], [ 81.408717256000045, 16.422982469000033 ], [ 81.407976367000117, 16.423653661000174 ], [ 81.407136256000172, 16.424456817000191 ], [ 81.406071378000149, 16.425320456000122 ], [ 81.405428472999972, 16.425841586000104 ], [ 81.404875876000176, 16.425966770000116 ], [ 81.40418732500018, 16.42650553600015 ], [ 81.403836893000118, 16.426752220000083 ], [ 81.40421009500011, 16.42727399100005 ], [ 81.405066911000119, 16.428599173000066 ], [ 81.406643085000155, 16.431218928000192 ], [ 81.408318463, 16.433808189000104 ], [ 81.410721084000102, 16.437879095000142 ], [ 81.411922201000095, 16.439769473000069 ], [ 81.411770783, 16.440716202000146 ], [ 81.411451578000197, 16.441788832999976 ], [ 81.41136123400014, 16.442735592000076 ], [ 81.412430720000032, 16.443968137000184 ], [ 81.412431688000083, 16.443969253000091 ], [ 81.41546592900005, 16.446524820999969 ], [ 81.419288027000107, 16.450218468000173 ], [ 81.421053666000091, 16.451796068000135 ], [ 81.423300816000051, 16.453786223 ], [ 81.423551149000048, 16.454016619000072 ], [ 81.426486341999976, 16.456719822000025 ], [ 81.429489838000165, 16.459118848000116 ], [ 81.4312557720001, 16.460917878000089 ], [ 81.433499245000178, 16.463011908000169 ], [ 81.43365596600006, 16.463158314 ], [ 81.433948763000046, 16.46518554000005 ], [ 81.434416305000184, 16.466565887000115 ], [ 81.435175397000137, 16.469026802000087 ], [ 81.435559605000094, 16.470888145000174 ], [ 81.436037411000029, 16.474232730000097 ], [ 81.436605267000118, 16.476411037000105 ], [ 81.436720360000152, 16.476842499999975 ], [ 81.437272873000097, 16.478965441000071 ], [ 81.437809981000157, 16.480985296000142 ], [ 81.438506269000015, 16.482153870000161 ], [ 81.438506886000198, 16.482153609000079 ], [ 81.438508179, 16.482155780000141 ], [ 81.440148626000109, 16.481461756000101 ], [ 81.440868880000039, 16.481105482000089 ], [ 81.440873405000161, 16.481103243 ], [ 81.44333002400009, 16.479886587000067 ], [ 81.446771111000146, 16.478403173000061 ], [ 81.448846377000109, 16.477457390999973 ], [ 81.450898995000102, 16.476702484000157 ], [ 81.453385921000176, 16.475314046 ], [ 81.45666707200013, 16.474116884000068 ], [ 81.458589191000101, 16.472827429000063 ], [ 81.460724363, 16.472286791000101 ], [ 81.461007469000151, 16.472908790000133 ], [ 81.462577066999984, 16.476316905000147 ], [ 81.463104533000148, 16.476838286000032 ], [ 81.464853989000119, 16.477732500000116 ], [ 81.465748002999987, 16.478330417000109 ], [ 81.466604044000064, 16.479075299999977 ], [ 81.467836360000035, 16.481458183000086 ], [ 81.469663706000063, 16.483507303000181 ], [ 81.470221509000112, 16.483879808000154 ], [ 81.470856503000107, 16.484884189000013 ], [ 81.471376735000149, 16.485705260000032 ], [ 81.472684598000114, 16.48749261100005 ], [ 81.473021305000145, 16.48808834600004 ], [ 81.473388798000087, 16.488869256000157 ], [ 81.473841269000161, 16.490396579000162 ], [ 81.474027436000199, 16.492593786000157 ], [ 81.474104529000044, 16.49315312400006 ], [ 81.474105426000051, 16.493823139000142 ], [ 81.474518278000119, 16.494270020000101 ], [ 81.474816415000191, 16.494567951000136 ], [ 81.475152773000104, 16.494902169000056 ], [ 81.476008913000101, 16.495721497000034 ], [ 81.478018586000189, 16.497100692000174 ], [ 81.480104849000043, 16.498665087 ], [ 81.481037034000167, 16.499261113000159 ], [ 81.481815735000055, 16.499261494999985 ], [ 81.482679211000061, 16.499857489000078 ], [ 81.483015719000036, 16.500304330000063 ], [ 81.483497881000119, 16.501199830000076 ], [ 81.483797515000049, 16.502614454000025 ], [ 81.483877300000188, 16.505183839000097 ], [ 81.484137813000132, 16.505890251000096 ], [ 81.4841387620001, 16.50659844400019 ], [ 81.483583503000091, 16.508125272000029 ], [ 81.48299156700017, 16.510766865 ], [ 81.482399931000032, 16.513633704000142 ], [ 81.482172649000063, 16.514937355000086 ], [ 81.482439975000148, 16.515031021000027 ], [ 81.482699664000052, 16.515122774000076 ], [ 81.483852749000164, 16.515348588000109 ], [ 81.484295489000033, 16.515310627000076 ], [ 81.484745864999979, 16.515274580000039 ], [ 81.485379514000101, 16.515274891000161 ], [ 81.486311199, 16.515498687 ], [ 81.488098070000149, 16.515827892000175 ], [ 81.488243928000145, 16.516429258000187 ], [ 81.488023731000112, 16.517322503000116 ], [ 81.487910113000169, 16.517992463000098 ], [ 81.487842153000031, 16.518551730000127 ], [ 81.486982419000128, 16.520748423000043 ], [ 81.486837816000161, 16.521082406000062 ], [ 81.486686127000155, 16.521826792000184 ], [ 81.486687526000139, 16.522870948000104 ], [ 81.486840860000029, 16.523353968000094 ], [ 81.486987308000096, 16.524396287000059 ], [ 81.487218434000056, 16.52595976900011 ], [ 81.487741062000111, 16.528567549000059 ], [ 81.487886761000198, 16.529050565000034 ], [ 81.487964353, 16.529982134000136 ], [ 81.487820150000061, 16.530615809999972 ], [ 81.487294679000058, 16.531583352000098 ], [ 81.486776343000145, 16.532178667000039 ], [ 81.486479204000148, 16.532625197000073 ], [ 81.486144040000113, 16.533182425000177 ], [ 81.485251024000149, 16.533330879000175 ], [ 81.485106272000053, 16.533554146000085 ], [ 81.484809882000036, 16.534559977000072 ], [ 81.484810780000146, 16.535229993000087 ], [ 81.484811178000143, 16.53552777800013 ], [ 81.484514738000144, 16.536495433000027 ], [ 81.484622666000178, 16.537278124000011 ], [ 81.484478564000199, 16.537986246000173 ], [ 81.484700259000135, 16.538209693999988 ], [ 81.484853592000093, 16.538692713999978 ], [ 81.485182020000138, 16.538805499000034 ], [ 81.485632844000122, 16.539103505000128 ], [ 81.485816614000044, 16.539512093000042 ], [ 81.4859699000001, 16.539958846000161 ], [ 81.486787271000139, 16.540331478000041 ], [ 81.487795101000074, 16.540406419000135 ], [ 81.489169577999974, 16.540630432000114 ], [ 81.49036073200017, 16.54077990900015 ], [ 81.491444905000037, 16.540854887000137 ], [ 81.492079004, 16.541191160000153 ], [ 81.492041682000149, 16.541824888000178 ], [ 81.492340219000084, 16.542420604000085 ], [ 81.492638556000145, 16.542867427000033 ], [ 81.493379433000086, 16.543127398000138 ], [ 81.493830158000151, 16.543350958000133 ], [ 81.494235476000085, 16.543872279000027 ], [ 81.494800666000174, 16.544059627000081 ], [ 81.49502246000003, 16.544357519000187 ], [ 81.495129840000061, 16.544729803000109 ], [ 81.495802559000197, 16.545400148000056 ], [ 81.49606247700018, 16.545661792000033 ], [ 81.49639868600002, 16.545885296000051 ], [ 81.497108777000108, 16.54596009 ], [ 81.497704653000199, 16.546258167000076 ], [ 81.498185915000192, 16.546481742000026 ], [ 81.499117502000104, 16.546631091 ], [ 81.500049237000042, 16.546891155000026 ], [ 81.501018996000028, 16.547040523000135 ], [ 81.50228650300005, 16.547197672000095 ], [ 81.502135056000043, 16.548121493000053 ], [ 81.501543071000185, 16.550726817000168 ], [ 81.501286650000168, 16.553072699000097 ], [ 81.500914116000104, 16.554227385000047 ], [ 81.500471724000079, 16.554524954000101 ], [ 81.499800152000091, 16.554709784000124 ], [ 81.499319589000038, 16.555007333000106 ], [ 81.499169900000197, 16.557242552000048 ], [ 81.499288806000095, 16.560518239000089 ], [ 81.499474026000144, 16.562007253000047 ], [ 81.499926749000167, 16.563721645000101 ], [ 81.501303871000061, 16.565917526000192 ], [ 81.501602160000175, 16.566328080000062 ], [ 81.50212433900009, 16.568599898000059 ], [ 81.50242292400003, 16.569231882000111 ], [ 81.502805862000116, 16.570142604000182 ], [ 81.502875347999975, 16.570722936000038 ], [ 81.502128032000144, 16.571354406000069 ], [ 81.501762882000151, 16.572322027000098 ], [ 81.500939873000164, 16.573438315000089 ], [ 81.500421738, 16.574182523000047 ], [ 81.499751066000101, 16.575039278000133 ], [ 81.499867179000034, 16.57623047300001 ], [ 81.500875115000156, 16.582077851000122 ], [ 81.502594236000164, 16.583120940000185 ], [ 81.50389207000012, 16.583121576000053 ], [ 81.507022491000043, 16.583382719000099 ], [ 81.509144833000107, 16.583383759000185 ], [ 81.509778234000066, 16.583198908999975 ], [ 81.51134297100009, 16.582976338000151 ] ] ] ] } }
]
}
